     3.04           N: GNSS NAV DATA    M: MIXED            RINEX VERSION / TYPE
ssrcrin-15.6.1x                         20250101 180000 UTC PGM / RUN BY / DATE 
    18                                                      LEAP SECONDS        
                                                            END OF HEADER       
G31 2025 01 01 20 00 00-2.187881618738E-04 7.958078640513E-13 0.000000000000E+00
     1.090000000000E+02 1.812500000000E+01 4.880560437789E-09-2.978286972350E+00
     7.487833499908E-07 1.069969334640E-02 7.897615432739E-06 5.153602771759E+03
     3.312000000000E+05-2.048909664154E-08 1.300998722105E+00-1.695007085800E-07
     9.539005641416E-01 2.245312500000E+02 7.911925990447E-01-7.898186134012E-09
     6.746709598964E-10 1.000000000000E+00 2.347000000000E+03 0.000000000000E+00
     2.000000000000E+00 0.000000000000E+00-1.350417733192E-08 1.090000000000E+02
     3.241680000000E+05 4.000000000000E+00
S21 2025 01 01 18 02 56 0.000000000000E+00 0.000000000000E+00 3.241900000000E+05
     4.200468400000E+04 0.000000000000E+00 0.000000000000E+00 6.300000000000E+01
    -3.674932960000E+03 0.000000000000E+00 0.000000000000E+00 3.276700000000E+04
     0.000000000000E+00 0.000000000000E+00 0.000000000000E+00 2.450000000000E+02
S23 2025 01 01 18 03 12 0.000000000000E+00 0.000000000000E+00 3.241920000000E+05
     3.866796400000E+04 0.000000000000E+00 0.000000000000E+00 6.300000000000E+01
     1.681330800000E+04 0.000000000000E+00 0.000000000000E+00 3.276700000000E+04
     0.000000000000E+00 0.000000000000E+00 0.000000000000E+00 2.470000000000E+02
G05 2025 01 01 20 00 00-1.977700740099E-04-1.136868377216E-12 0.000000000000E+00
     5.000000000000E+01-5.856250000000E+01 4.406254966777E-09 1.168045703209E+00
    -3.172084689140E-06 5.600419361144E-03 8.791685104370E-07 5.153725006104E+03
     3.312000000000E+05-3.725290298462E-09-8.629982549985E-01-4.842877388000E-08
     9.744536488316E-01 3.738125000000E+02 1.329811669022E+00-8.354990876049E-09
    -2.171519023912E-10 1.000000000000E+00 2.347000000000E+03 0.000000000000E+00
     2.000000000000E+00 0.000000000000E+00-1.071020960808E-08 5.000000000000E+01
     3.241980000000E+05 4.000000000000E+00
S36 2025 01 01 18 04 32 0.000000000000E+00 0.000000000000E+00 3.242820000000E+05
     4.200368800000E+04 0.000000000000E+00 0.000000000000E+00 6.300000000000E+01
     3.674846960000E+03 0.000000000000E+00 0.000000000000E+00 3.276700000000E+04
     0.000000000000E+00 0.000000000000E+00 0.000000000000E+00 6.700000000000E+01
S23 2025 01 01 18 05 04 0.000000000000E+00 0.000000000000E+00 3.243170000000E+05
     3.866796400000E+04 0.000000000000E+00 0.000000000000E+00 6.300000000000E+01
     1.681330800000E+04 0.000000000000E+00 0.000000000000E+00 3.276700000000E+04
     0.000000000000E+00 0.000000000000E+00 0.000000000000E+00 2.480000000000E+02
S21 2025 01 01 18 05 52 0.000000000000E+00 0.000000000000E+00 3.243560000000E+05
     4.200468400000E+04 0.000000000000E+00 0.000000000000E+00 6.300000000000E+01
    -3.674932960000E+03 0.000000000000E+00 0.000000000000E+00 3.276700000000E+04
     0.000000000000E+00 0.000000000000E+00 0.000000000000E+00 2.460000000000E+02
S36 2025 01 01 18 07 12 0.000000000000E+00 0.000000000000E+00 3.244340000000E+05
     4.200368800000E+04 0.000000000000E+00 0.000000000000E+00 6.300000000000E+01
     3.674846960000E+03 0.000000000000E+00 0.000000000000E+00 3.276700000000E+04
     0.000000000000E+00 0.000000000000E+00 0.000000000000E+00 6.800000000000E+01
S23 2025 01 01 18 07 12 0.000000000000E+00 0.000000000000E+00 3.244390000000E+05
     3.866796400000E+04 0.000000000000E+00 0.000000000000E+00 6.300000000000E+01
     1.681330800000E+04 0.000000000000E+00 0.000000000000E+00 3.276700000000E+04
     0.000000000000E+00 0.000000000000E+00 0.000000000000E+00 2.490000000000E+02
S21 2025 01 01 18 08 32 0.000000000000E+00 0.000000000000E+00 3.245200000000E+05
     4.200468400000E+04 0.000000000000E+00 0.000000000000E+00 6.300000000000E+01
    -3.674932960000E+03 0.000000000000E+00 0.000000000000E+00 3.276700000000E+04
     0.000000000000E+00 0.000000000000E+00 0.000000000000E+00 2.470000000000E+02
S23 2025 01 01 18 09 20 0.000000000000E+00 0.000000000000E+00 3.245610000000E+05
     3.866796400000E+04 0.000000000000E+00 0.000000000000E+00 6.300000000000E+01
     1.681330800000E+04 0.000000000000E+00 0.000000000000E+00 3.276700000000E+04
     0.000000000000E+00 0.000000000000E+00 0.000000000000E+00 2.500000000000E+02
S36 2025 01 01 18 09 36 0.000000000000E+00 0.000000000000E+00 3.245860000000E+05
     4.200368800000E+04 0.000000000000E+00 0.000000000000E+00 6.300000000000E+01
     3.674846960000E+03 0.000000000000E+00 0.000000000000E+00 3.276700000000E+04
     0.000000000000E+00 0.000000000000E+00 0.000000000000E+00 6.900000000000E+01
C50 2025 01 01 18 00 00-7.194954669103E-04 1.013233941194E-11 0.000000000000E+00
     1.000000000000E+00-1.576562500000E+02 3.379783638698E-09 2.380727562013E+00
    -7.793772965670E-06 1.039304770529E-04 5.437526851892E-06 5.282634416580E+03
     3.240000000000E+05-1.052394509315E-07-3.072146209049E-01 1.005828380585E-07
     9.651539927093E-01 2.523125000000E+02-1.952936983047E+00-6.718136980228E-09
    -2.035799084918E-10 0.000000000000E+00 9.910000000000E+02 0.000000000000E+00
     2.000000000000E+00 1.000000000000E+00 3.190000000000E-08 3.190000000000E-08
     3.245880000000E+05 1.000000000000E+00
C42 2025 01 01 18 00 00-5.548238987103E-04-1.060573850964E-11 0.000000000000E+00
     1.000000000000E+00-1.665937500000E+02 3.262278744147E-09 1.157196357485E+00
    -8.175615221262E-06 1.357718254440E-03 5.984678864479E-06 5.282637243271E+03
     3.240000000000E+05-7.124617695808E-08-3.044948747937E-01-1.098960638046E-07
     9.793901605599E-01 2.470156250000E+02-1.125715700452E+00-6.734923393736E-09
    -1.378628853997E-10 0.000000000000E+00 9.910000000000E+02 0.000000000000E+00
     2.000000000000E+00 0.000000000000E+00-3.190000000000E-08-3.190000000000E-08
     3.245880000000E+05 1.000000000000E+00
E26 2025 01 01 17 40 00-1.663584262133E-04 1.091393642128E-11 0.000000000000E+00
     3.000000000000E+01 1.854375000000E+02 2.724042038714E-09 1.140621560015E+00
     8.497387170792E-06 3.931563114747E-04 4.079192876816E-07 5.440608392715E+03
     3.228000000000E+05 8.381903171539E-08-1.776923248443E+00-2.607703208923E-08
     9.930067884557E-01 3.458750000000E+02-1.481335444001E+00-5.738096157594E-09
     2.400099973798E-10 2.580000000000E+02 2.347000000000E+03
     3.120000000000E+00 0.000000000000E+00-6.752088665962E-09 0.000000000000E+00
     3.246100000000E+05
E21 2025 01 01 18 00 00-6.376162637025E-04-2.245315045002E-12 0.000000000000E+00
     3.200000000000E+01-2.096875000000E+01 3.561219767669E-09 8.724867621414E-01
    -9.220093488693E-07 2.549043856561E-04 6.422400474548E-06 5.440603712082E+03
     3.240000000000E+05-1.490116119385E-08 2.413510273190E+00 3.725290298462E-08
     9.642263622069E-01 2.045625000000E+02 1.029990640479E+00-5.532730460432E-09
    -5.189501877869E-10 5.170000000000E+02 2.347000000000E+03
     3.120000000000E+00 0.000000000000E+00 0.000000000000E+00 6.984919309616E-10
     3.246650000000E+05
E27 2025 01 01 18 00 00-5.450566532090E-04-9.890754881781E-12 0.000000000000E+00
     3.200000000000E+01-2.093750000000E+01 3.517646524097E-09 2.144474194895E+00
    -9.667128324509E-07 3.202072111890E-04 6.299465894699E-06 5.440604539871E+03
     3.240000000000E+05-7.078051567078E-08 2.413482732295E+00 3.725290298462E-08
     9.641981191104E-01 2.076562500000E+02 5.557315849312E-01-5.548445400736E-09
    -5.585946962827E-10 5.170000000000E+02 2.347000000000E+03
     3.120000000000E+00 0.000000000000E+00-2.328306436539E-10 2.328306436539E-10
     3.246650000000E+05
E23 2025 01 01 18 00 00 8.344592060894E-06-2.557953848736E-13 0.000000000000E+00
     3.200000000000E+01-1.675000000000E+01 3.545504827365E-09-4.879552515577E-01
    -6.631016731262E-07 3.607473336160E-04 6.282702088356E-06 5.440605922699E+03
     3.240000000000E+05 5.587935447693E-08 2.409489777858E+00 2.980232238770E-08
     9.661076529130E-01 2.076875000000E+02 1.612241406017E+00-5.553802766749E-09
    -5.253790270024E-10 5.170000000000E+02 2.347000000000E+03
     3.120000000000E+00 3.900000000000E+02-6.984919309616E-10 1.164153218269E-09
     3.246650000000E+05
S21 2025 01 01 18 11 12 0.000000000000E+00 0.000000000000E+00 3.246830000000E+05
     4.200468400000E+04 0.000000000000E+00 0.000000000000E+00 6.300000000000E+01
    -3.674932960000E+03 0.000000000000E+00 0.000000000000E+00 3.276700000000E+04
     0.000000000000E+00 0.000000000000E+00 0.000000000000E+00 2.480000000000E+02
S23 2025 01 01 18 11 12 0.000000000000E+00 0.000000000000E+00 3.246860000000E+05
     3.866796400000E+04 0.000000000000E+00 0.000000000000E+00 6.300000000000E+01
     1.681330800000E+04 0.000000000000E+00 0.000000000000E+00 3.276700000000E+04
     0.000000000000E+00 0.000000000000E+00 0.000000000000E+00 2.510000000000E+02
E21 2025 01 01 18 00 00-6.376173114404E-04-2.245315045002E-12 0.000000000000E+00
     3.200000000000E+01-2.096875000000E+01 3.561219767669E-09 8.724867621414E-01
    -9.220093488693E-07 2.549043856561E-04 6.422400474548E-06 5.440603712082E+03
     3.240000000000E+05-1.490116119385E-08 2.413510273190E+00 3.725290298462E-08
     9.642263622069E-01 2.045625000000E+02 1.029990640479E+00-5.532730460432E-09
    -5.189501877869E-10 2.580000000000E+02 2.347000000000E+03
     3.120000000000E+00 0.000000000000E+00 0.000000000000E+00 0.000000000000E+00
     3.247400000000E+05
